[{"OBJECT_NAME":"TYVAK-0130","OBJECT_ID":"2021-041BF","EPOCH":"2026-03-09T11:37:42.710304","MEAN_MOTION":15.26049141,"ECCENTRICITY":0.0008953,"INCLINATION":52.9967,"RA_OF_ASC_NODE":128.603,"ARG_OF_PERICENTER":215.1647,"MEAN_ANOMALY":144.876,"EPHEMERIS_TYPE":0,"CLASSIFICATION_TYPE":"U","NORAD_CAT_ID":48606,"ELEMENT_SET_NO":999,"REV_AT_EPOCH":26515,"BSTAR":0.0003519806,"MEAN_MOTION_DOT":8.857e-5,"MEAN_MOTION_DDOT":0},{"OBJECT_NAME":"OBJECT Q","OBJECT_ID":"2025-313Q","EPOCH":"2026-03-09T22:26:39.769728","MEAN_MOTION":15.21804409,"ECCENTRICITY":0.0014523,"INCLINATION":97.401,"RA_OF_ASC_NODE":145.1966,"ARG_OF_PERICENTER":358.4503,"MEAN_ANOMALY":1.6686,"EPHEMERIS_TYPE":0,"CLASSIFICATION_TYPE":"U","NORAD_CAT_ID":67262,"ELEMENT_SET_NO":999,"REV_AT_EPOCH":1085,"BSTAR":0.00057243676,"MEAN_MOTION_DOT":0.00012974,"MEAN_MOTION_DDOT":0}]
